{"fetched_at":"2026-07-07T07:58:32.886Z","source":"https://celestrak.org/NORAD/elements/gp.php?NAME=GLOBAL&FORMAT=JSON","constellation":"blacksky-gen2","records":[{"OBJECT_NAME":"GLOBAL-2","OBJECT_ID":"2018-099BG","EPOCH":"2026-07-06T15:21:48.401856","CLASSIFICATION_TYPE":"U","MEAN_MOTION":15.08794386,"ECCENTRICITY":0.0007619,"INCLINATION":97.3548,"RA_OF_ASC_NODE":223.3445,"ARG_OF_PERICENTER":89.9722,"MEAN_ANOMALY":270.2381,"EPHEMERIS_TYPE":0,"NORAD_CAT_ID":43812,"ELEMENT_SET_NO":999,"REV_AT_EPOCH":41484,"BSTAR":0.00020925,"MEAN_MOTION_DOT":0.00003231,"MEAN_MOTION_DDOT":0},{"OBJECT_NAME":"GLOBAL-4","OBJECT_ID":"2019-054E","EPOCH":"2026-07-06T05:21:24.848064","CLASSIFICATION_TYPE":"U","MEAN_MOTION":15.6630115,"ECCENTRICITY":0.00041515,"INCLINATION":45.0045,"RA_OF_ASC_NODE":126.4158,"ARG_OF_PERICENTER":131.7298,"MEAN_ANOMALY":228.3955,"EPHEMERIS_TYPE":0,"NORAD_CAT_ID":44499,"ELEMENT_SET_NO":999,"REV_AT_EPOCH":38334,"BSTAR":0.00060824783,"MEAN_MOTION_DOT":0.00064673,"MEAN_MOTION_DDOT":0},{"OBJECT_NAME":"GLOBAL-9","OBJECT_ID":"2021-023G","EPOCH":"2026-07-06T08:49:08.825664","CLASSIFICATION_TYPE":"U","MEAN_MOTION":15.47338011,"ECCENTRICITY":0.0002625,"INCLINATION":44.9802,"RA_OF_ASC_NODE":142.6639,"ARG_OF_PERICENTER":95.8826,"MEAN_ANOMALY":264.2364,"EPHEMERIS_TYPE":0,"NORAD_CAT_ID":47971,"ELEMENT_SET_NO":999,"REV_AT_EPOCH":29791,"BSTAR":0.00034917,"MEAN_MOTION_DOT":0.00017918,"MEAN_MOTION_DDOT":0},{"OBJECT_NAME":"GLOBAL-14","OBJECT_ID":"2021-106A","EPOCH":"2026-07-06T09:41:10.836096","CLASSIFICATION_TYPE":"U","MEAN_MOTION":15.51510131,"ECCENTRICITY":0.0016051,"INCLINATION":42.0028,"RA_OF_ASC_NODE":176.7996,"ARG_OF_PERICENTER":163.3863,"MEAN_ANOMALY":196.751,"EPHEMERIS_TYPE":0,"NORAD_CAT_ID":49469,"ELEMENT_SET_NO":999,"REV_AT_EPOCH":26111,"BSTAR":0.00032709,"MEAN_MOTION_DOT":0.00019682,"MEAN_MOTION_DDOT":0},{"OBJECT_NAME":"GLOBAL-12","OBJECT_ID":"2021-115BA","EPOCH":"2026-07-06T14:56:15.709920","CLASSIFICATION_TYPE":"U","MEAN_MOTION":15.54904434,"ECCENTRICITY":0.0002594,"INCLINATION":53.1958,"RA_OF_ASC_NODE":311.0075,"ARG_OF_PERICENTER":70.4909,"MEAN_ANOMALY":289.6383,"EPHEMERIS_TYPE":0,"NORAD_CAT_ID":49772,"ELEMENT_SET_NO":999,"REV_AT_EPOCH":25892,"BSTAR":0.00046955,"MEAN_MOTION_DOT":0.0003158,"MEAN_MOTION_DDOT":0},{"OBJECT_NAME":"GLOBAL-13","OBJECT_ID":"2021-115BB","EPOCH":"2026-07-06T15:18:21.014208","CLASSIFICATION_TYPE":"U","MEAN_MOTION":15.46866345,"ECCENTRICITY":0.0001615,"INCLINATION":53.1983,"RA_OF_ASC_NODE":322.0742,"ARG_OF_PERICENTER":148.9913,"MEAN_ANOMALY":211.1191,"EPHEMERIS_TYPE":0,"NORAD_CAT_ID":49773,"ELEMENT_SET_NO":999,"REV_AT_EPOCH":25877,"BSTAR":0.00037084,"MEAN_MOTION_DOT":0.00018549,"MEAN_MOTION_DDOT":0},{"OBJECT_NAME":"GLOBAL-17","OBJECT_ID":"2021-120A","EPOCH":"2026-07-06T18:29:38.448096","CLASSIFICATION_TYPE":"U","MEAN_MOTION":15.53378471,"ECCENTRICITY":0.0014114,"INCLINATION":41.9949,"RA_OF_ASC_NODE":292.5122,"ARG_OF_PERICENTER":26.6424,"MEAN_ANOMALY":333.5143,"EPHEMERIS_TYPE":0,"NORAD_CAT_ID":49949,"ELEMENT_SET_NO":999,"REV_AT_EPOCH":25794,"BSTAR":0.00036235,"MEAN_MOTION_DOT":0.00023365,"MEAN_MOTION_DDOT":0},{"OBJECT_NAME":"GLOBAL-16","OBJECT_ID":"2021-120B","EPOCH":"2026-07-06T17:55:05.335392","CLASSIFICATION_TYPE":"U","MEAN_MOTION":15.51181862,"ECCENTRICITY":0.0012394,"INCLINATION":41.9955,"RA_OF_ASC_NODE":296.7612,"ARG_OF_PERICENTER":15.6283,"MEAN_ANOMALY":344.4942,"EPHEMERIS_TYPE":0,"NORAD_CAT_ID":49950,"ELEMENT_SET_NO":999,"REV_AT_EPOCH":25788,"BSTAR":0.00036857,"MEAN_MOTION_DOT":0.00021917,"MEAN_MOTION_DDOT":0},{"OBJECT_NAME":"GLOBAL-18","OBJECT_ID":"2022-034B","EPOCH":"2026-07-06T07:37:46.564320","CLASSIFICATION_TYPE":"U","MEAN_MOTION":15.46957993,"ECCENTRICITY":0.00041711,"INCLINATION":52.9804,"RA_OF_ASC_NODE":165.1624,"ARG_OF_PERICENTER":359.3997,"MEAN_ANOMALY":0.7003,"EPHEMERIS_TYPE":0,"NORAD_CAT_ID":52196,"ELEMENT_SET_NO":999,"REV_AT_EPOCH":23992,"BSTAR":0.00038445635,"MEAN_MOTION_DOT":0.00019316,"MEAN_MOTION_DDOT":0},{"OBJECT_NAME":"GLOBAL-19","OBJECT_ID":"2023-041B","EPOCH":"2026-07-06T02:56:39.954624","CLASSIFICATION_TYPE":"U","MEAN_MOTION":15.38514598,"ECCENTRICITY":0.00080337,"INCLINATION":42.0015,"RA_OF_ASC_NODE":91.4283,"ARG_OF_PERICENTER":156.0579,"MEAN_ANOMALY":204.0636,"EPHEMERIS_TYPE":0,"NORAD_CAT_ID":55982,"ELEMENT_SET_NO":999,"REV_AT_EPOCH":18484,"BSTAR":0.0003680252,"MEAN_MOTION_DOT":0.00014081,"MEAN_MOTION_DDOT":0},{"OBJECT_NAME":"GLOBAL-5","OBJECT_ID":"2023-041C","EPOCH":"2026-07-06T02:10:21.015264","CLASSIFICATION_TYPE":"U","MEAN_MOTION":15.38525508,"ECCENTRICITY":0.00069258,"INCLINATION":42.0002,"RA_OF_ASC_NODE":91.1437,"ARG_OF_PERICENTER":149.5613,"MEAN_ANOMALY":210.563,"EPHEMERIS_TYPE":0,"NORAD_CAT_ID":55983,"ELEMENT_SET_NO":999,"REV_AT_EPOCH":18484,"BSTAR":0.00037371391,"MEAN_MOTION_DOT":0.00014305,"MEAN_MOTION_DDOT":0}]}
