GLOBAL-2                
1 43812U 18099BG  26187.64014354  .00003231  00000+0  20925-3 0  9995
2 43812  97.3548 223.3445 0007619  89.9722 270.2381 15.08794386414844
GLOBAL-4                
1 44499U 19054E   26187.22320426  .00064673  00000+0  60825-3 0  9993
2 44499  45.0045 126.4158 0004151 131.7298 228.3955 15.66301150383342
GLOBAL-9                
1 47971U 21023G   26187.36746326  .00017918  00000+0  34917-3 0  9999
2 47971  44.9802 142.6639 0002625  95.8826 264.2364 15.47338011297919
GLOBAL-14               
1 49469U 21106A   26187.40359764  .00019682  00000+0  32709-3 0  9993
2 49469  42.0028 176.7996 0016051 163.3863 196.7510 15.51510131261111
GLOBAL-12               
1 49772U 21115BA  26187.62240405  .00031580  00000+0  46955-3 0  9994
2 49772  53.1958 311.0075 0002594  70.4909 289.6383 15.54904434258922
GLOBAL-13               
1 49773U 21115BB  26187.63774322  .00018549  00000+0  37084-3 0  9999
2 49773  53.1983 322.0742 0001615 148.9913 211.1191 15.46866345258772
GLOBAL-17               
1 49949U 21120A   26187.77058389  .00023365  00000+0  36235-3 0  9992
2 49949  41.9949 292.5122 0014114  26.6424 333.5143 15.53378471257944
GLOBAL-16               
1 49950U 21120B   26187.74658953  .00021917  00000+0  36857-3 0  9995
2 49950  41.9955 296.7612 0012394  15.6283 344.4942 15.51181862257887
GLOBAL-18               
1 52196U 22034B   26187.31790005  .00019316  00000+0  38446-3 0  9990
2 52196  52.9804 165.1624 0004171 359.3997   0.7003 15.46957993239929
GLOBAL-19               
1 55982U 23041B   26187.12268466  .00014081  00000+0  36803-3 0  9994
2 55982  42.0015  91.4283 0008033 156.0579 204.0636 15.38514598184842
GLOBAL-5                
1 55983U 23041C   26187.09052101  .00014305  00000+0  37371-3 0  9998
2 55983  42.0002  91.1437 0006925 149.5613 210.5630 15.38525508184840
